NORAD_CAT_ID,OBJECT_NAME,OBJECT_TYPE,EPOCH,MEAN_MOTION,ECCENTRICITY,INCLINATION,RA_OF_ASC_NODE,ARG_OF_PERICENTER,MEAN_ANOMALY,BSTAR,MEAN_MOTION_DOT,MEAN_MOTION_DDOT,TLE_LINE0,TLE_LINE1,TLE_LINE2,SEMIMAJOR_AXIS,PERIOD,APOGEE,PERIGEE,DECAYED
55295.0,STARLINK-5293,PAYLOAD,2024-04-19 19:12:29,14.98320852,0.000254,70.0016,341.5262,271.5609,88.5259,0.00030469,3.543e-05,0.0,0 STARLINK-5293,1 55295U 23010AC  24110.80033788  .00003543  00000-0  30469-3 0  9997,2 55295  70.0016 341.5262 0002540 271.5609  88.5259 14.98320852 69280,6950.221,96.108,573.852,570.321,0.0
55295.0,STARLINK-5293,PAYLOAD,2024-04-19 22:24:45,14.98323243,0.0002694,70.0017,341.1887,277.1747,82.9106,0.00039138,4.579e-05,0.0,0 STARLINK-5293,1 55295U 23010AC  24110.93385496  .00004579  00000-0  39138-3 0  9999,2 55295  70.0017 341.1887 0002694 277.1747  82.9106 14.98323243 69618,6950.214,96.107,573.951,570.206,0.0
55295.0,STARLINK-5293,PAYLOAD,2024-04-20 01:37:00,14.9832775,0.0002666,70.0021,340.8531,279.9568,80.129,0.00042796,5.017e-05,0.0,0 STARLINK-5293,1 55295U 23010AC  24111.06737252  .00005017  00000-0  42796-3 0  9997,2 55295  70.0021 340.8531 0002666 279.9568  80.1290 14.98327750 69324,6950.2,96.107,573.918,570.212,0.0
55295.0,STARLINK-5293,PAYLOAD,2024-04-20 20:50:37,14.98334687,0.0002731,70.0019,338.8368,230.2911,129.8008,2.9426e-05,2.58e-06,0.0,0 STARLINK-5293,1 55295U 23010AC  24111.86849234  .00000258  00000-0  29426-4 0  9997,2 55295  70.0019 338.8368 0002731 230.2911 129.8008 14.98334687 69753,6950.178,96.107,573.941,570.145,0.0
55295.0,STARLINK-5293,PAYLOAD,2024-04-21 01:39:02,14.98330043,0.0002634,70.0013,338.3312,243.1977,116.8913,-4.9512e-05,-6.84e-06,0.0,0 STARLINK-5293,1 55295U 23010AC  24112.06877654 -.00000684  00000-0 -49512-4 0  9990,2 55295  70.0013 338.3312 0002634 243.1977 116.8913 14.98330043 69470,6950.193,96.107,573.888,570.227,0.0
55295.0,STARLINK-5293,PAYLOAD,2024-04-21 22:28:46,14.98339153,0.0002616,70.0007,336.1411,248.2806,111.8075,-0.00019076,-2.369e-05,0.0,0 STARLINK-5293,1 55295U 23010AC  24112.93665280 -.00002369  00000-0 -19076-3 0  9999,2 55295  70.0007 336.1411 0002616 248.2806 111.8075 14.98339153 69910,6950.165,96.106,573.848,570.211,0.0
55295.0,STARLINK-5293,PAYLOAD,2024-04-22 00:04:55,14.98328558,0.0002764,70.0007,335.9726,252.9452,107.1405,2.3728e-05,1.9e-06,0.0,0 STARLINK-5293,1 55295U 23010AC  24113.00341533  .00000190  00000-0  23728-4 0  9998,2 55295  70.0007 335.9726 0002764 252.9452 107.1405 14.98328558 69922,6950.197,96.107,573.983,570.141,0.0
55295.0,STARLINK-5293,PAYLOAD,2024-04-22 20:54:40,14.98324002,0.0002834,70.0005,333.7837,254.4872,105.5975,0.00010226,1.127e-05,0.0,0 STARLINK-5293,1 55295U 23010AC  24113.87129675  .00001127  00000-0  10226-3 0  9993,2 55295  70.0005 333.7837 0002834 254.4872 105.5975 14.98324002 69744,6950.211,96.107,574.046,570.107,0.0
55295.0,STARLINK-5293,PAYLOAD,2024-04-22 22:30:48,14.98326059,0.0002747,70.0004,333.6161,245.6271,114.4602,6.3211e-05,6.61e-06,0.0,0 STARLINK-5293,1 55295U 23010AC  24113.93805621  .00000661  00000-0  63211-4 0  9997,2 55295  70.0004 333.6161 0002747 245.6271 114.4602 14.98326059 70067,6950.205,96.107,573.979,570.161,0.0
55295.0,STARLINK-5293,PAYLOAD,2024-04-23 14:32:08,14.98326114,0.0002785,69.9997,331.9313,261.504,98.5803,5.611e-05,5.77e-06,0.0,0 STARLINK-5293,1 55295U 23010AC  24114.60565865  .00000577  00000-0  56110-4 0  9991,2 55295  69.9997 331.9313 0002785 261.5040  98.5803 14.98326114 70166,6950.205,96.107,574.006,570.134,0.0
55295.0,STARLINK-5293,PAYLOAD,2024-04-23 20:56:40,14.9832931,0.0002807,70.0,331.2587,253.8806,106.2044,7.8494e-05,8.44e-06,0.0,0 STARLINK-5293,1 55295U 23010AC  24114.87269594  .00000844  00000-0  78494-4 0  9996,2 55295  70.0000 331.2587 0002807 253.8806 106.2044 14.98329310 69892,6950.195,96.107,574.011,570.109,0.0
55295.0,STARLINK-5293,PAYLOAD,2024-04-23 22:32:48,14.98330771,0.0002769,70.0001,331.0907,252.7631,107.3225,9.3764e-05,1.026e-05,0.0,0 STARLINK-5293,1 55295U 23010AC  24114.93945461  .00001026  00000-0  93764-4 0  9997,2 55295  70.0001 331.0907 0002769 252.7631 107.3225 14.98330771 70212,6950.191,96.107,573.98,570.131,0.0
55295.0,STARLINK-5293,PAYLOAD,2024-04-24 14:34:09,14.98333965,0.00029,69.9997,329.4049,270.0466,90.036,3.4741e-05,3.22e-06,0.0,0 STARLINK-5293,1 55295U 23010AC  24115.60705511  .00000322  00000-0  34741-4 0  9990,2 55295  69.9997 329.4049 0002900 270.0466  90.0360 14.98333965 70314,6950.181,96.107,574.061,570.03,0.0
55295.0,STARLINK-5293,PAYLOAD,2024-04-24 20:58:41,14.98331267,0.0002991,69.9999,328.7328,268.6928,91.3889,6.3054e-05,6.59e-06,0.0,0 STARLINK-5293,1 55295U 23010AC  24115.87409578  .00000659  00000-0  63054-4 0  9995,2 55295  69.9999 328.7328 0002991 268.6928  91.3889 14.98331267 70047,6950.189,96.107,574.133,569.975,0.0
55295.0,STARLINK-5293,PAYLOAD,2024-04-24 22:34:49,14.98332882,0.0002865,69.9999,328.5646,267.2439,92.8392,3.2265e-05,2.92e-06,0.0,0 STARLINK-5293,1 55295U 23010AC  24115.94085538  .00000292  00000-0  32265-4 0  9992,2 55295  69.9999 328.5646 0002865 267.2439  92.8392 14.98332882 70364,6950.184,96.107,574.04,570.058,0.0
55295.0,STARLINK-5293,PAYLOAD,2024-04-25 14:36:12,14.98314761,0.0003066,69.9994,326.8812,270.4338,89.647,-0.00014782,-1.856e-05,0.0,0 STARLINK-5293,1 55295U 23010AC  24116.60847528 -.00001856  00000-0 -14782-3 0  9993,2 55295  69.9994 326.8812 0003066 270.4338  89.6470 14.98314761 70461,6950.24,96.108,574.236,569.974,0.0
55295.0,STARLINK-5293,PAYLOAD,2024-04-25 21:00:44,14.98312562,0.0002466,70.001,326.2079,262.1308,97.9571,-7.628e-05,-1.002e-05,0.0,0 STARLINK-5293,1 55295U 23010AC  24116.87551807 -.00001002  00000-0 -76280-4 0  9999,2 55295  70.0010 326.2079 0002466 262.1308  97.9571 14.98312562 70191,6950.247,96.108,573.826,570.398,0.0
55295.0,STARLINK-5293,PAYLOAD,2024-04-25 22:36:52,14.98311062,0.0002361,70.0015,326.0397,263.4806,96.6085,-7.0113e-05,-9.29e-06,0.0,0 STARLINK-5293,1 55295U 23010AC  24116.94227994 -.00000929  00000-0 -70113-4 0  9990,2 55295  70.0015 326.0397 0002361 263.4806  96.6085 14.98311062 70514,6950.251,96.108,573.757,570.476,0.0
55295.0,STARLINK-5293,PAYLOAD,2024-04-26 13:02:04,14.98326608,0.0003238,69.9988,324.5226,270.9825,89.0963,2.8288e-05,2.44e-06,0.0,0 STARLINK-5293,1 55295U 23010AC  24117.54310893  .00000244  00000-0  28288-4 0  9992,2 55295  69.9988 324.5226 0003238 270.9825  89.0963 14.98326608 70290,6950.203,96.107,574.319,569.818,0.0
55295.0,STARLINK-5293,PAYLOAD,2024-04-26 14:38:12,14.98329009,0.0003316,69.9984,324.3545,269.6357,90.4422,4.9529e-05,4.98e-06,0.0,0 STARLINK-5293,1 55295U 23010AC  24117.60986692  .00000498  00000-0  49529-4 0  9997,2 55295  69.9984 324.3545 0003316 269.6357  90.4422 14.98329009 70610,6950.196,96.107,574.366,569.756,0.0
55295.0,STARLINK-5293,PAYLOAD,2024-04-26 16:14:20,14.98330712,0.0003343,69.9983,324.1862,268.4825,91.5951,5.6444e-05,5.8e-06,0.0,0 STARLINK-5293,1 55295U 23010AC  24117.67662600  .00000580  00000-0  56444-4 0  9990,2 55295  69.9983 324.1862 0003343 268.4825  91.5951 14.98330712 70629,6950.191,96.107,574.379,569.732,0.0
55295.0,STARLINK-5293,PAYLOAD,2024-04-27 00:15:00,14.98340717,0.0003089,69.9987,323.3441,269.9272,90.1533,0.00022429,2.585e-05,0.0,0 STARLINK-5293,1 55295U 23010AC  24118.01041818  .00002585  00000-0  22429-3 0  9993,2 55295  69.9987 323.3441 0003089 269.9272  90.1533 14.98340717 70364,6950.16,96.106,574.172,569.878,0.0
55295.0,STARLINK-5293,PAYLOAD,2024-04-27 14:40:12,14.9834119,0.0003089,69.9998,321.8291,269.2898,90.7907,0.00050799,5.975e-05,0.0,0 STARLINK-5293,1 55295U 23010AC  24118.61126135  .00005975  00000-0  50799-3 0  9992,2 55295  69.9998 321.8291 0003089 269.2898  90.7907 14.98341190 70760,6950.158,96.106,574.17,569.876,0.0
55295.0,STARLINK-5293,PAYLOAD,2024-04-27 21:04:44,14.98356705,0.0003063,70.0002,321.1557,269.3162,90.7646,0.00071515,8.456e-05,0.0,0 STARLINK-5293,1 55295U 23010AC  24118.87829612  .00008456  00000-0  71515-3 0  9996,2 55295  70.0002 321.1557 0003063 269.3162  90.7646 14.98356705 70807,6950.11,96.105,574.104,569.846,0.0
55295.0,STARLINK-5293,PAYLOAD,2024-04-28 00:17:00,14.98363206,0.0003038,70.0004,320.8189,269.5585,90.5226,0.00075862,8.978e-05,0.0,0 STARLINK-5293,1 55295U 23010AC  24119.01181230  .00008978  00000-0  75862-3 0  9998,2 55295  70.0004 320.8189 0003038 269.5585  90.5226 14.98363206 70513,6950.09,96.105,574.067,569.844,0.0
55295.0,STARLINK-5293,PAYLOAD,2024-04-28 13:06:05,14.98347514,0.0002023,70.0004,319.472,272.6551,87.4377,0.00015604,1.77e-05,0.0,0 STARLINK-5293,1 55295U 23010AC  24119.54589292  .00001770  00000-0  15604-3 0  9997,2 55295  70.0004 319.4720 0002023 272.6551  87.4377 14.98347514 70593,6950.139,96.106,573.41,570.598,0.0
55295.0,STARLINK-5293,PAYLOAD,2024-04-28 14:42:13,14.98348431,0.0002216,70.0003,319.3044,272.0278,88.0627,0.000121,1.352e-05,0.0,0 STARLINK-5293,1 55295U 23010AC  24119.61265213  .00001352  00000-0  12100-3 0  9993,2 55295  70.0003 319.3044 0002216 272.0278  88.0627 14.98348431 70914,6950.136,96.106,573.541,570.461,0.0
55295.0,STARLINK-5293,PAYLOAD,2024-04-28 21:06:45,14.9833174,0.0002607,70.0012,318.6323,264.9888,95.0973,-0.00022435,-2.769e-05,0.0,0 STARLINK-5293,1 55295U 23010AC  24119.87969722 -.00002769  00000-0 -22435-3 0  9994,2 55295  70.0012 318.6323 0002607 264.9888  95.0973 14.98331740 70644,6950.188,96.107,573.864,570.241,0.0
55295.0,STARLINK-5293,PAYLOAD,2024-04-28 22:42:53,14.98333199,0.000285,70.0005,318.4601,258.6625,101.4214,-0.00019113,-2.373e-05,0.0,0 STARLINK-5293,1 55295U 23010AC  24119.94645680 -.00002373  00000-0 -19113-3 0  9996,2 55295  70.0005 318.4601 0002850 258.6625 101.4214 14.98333199 70967,6950.183,96.107,574.029,570.067,0.0
55295.0,STARLINK-5293,PAYLOAD,2024-04-29 14:44:14,14.98336885,0.0002998,69.9998,316.7789,268.5934,91.4881,-3.2335e-05,-4.79e-06,0.0,0 STARLINK-5293,1 55295U 23010AC  24120.61405309 -.00000479  00000-0 -32335-4 0  9991,2 55295  69.9998 316.7789 0002998 268.5934  91.4881 14.98336885 71064,6950.172,96.107,574.12,569.953,0.0
